[{"OBJECT_NAME":"OBJECT A","OBJECT_ID":"2025-013A","EPOCH":"2026-03-09T23:29:31.895232","MEAN_MOTION":15.29260221,"ECCENTRICITY":0.0010321,"INCLINATION":97.6364,"RA_OF_ASC_NODE":244.5149,"ARG_OF_PERICENTER":282.3775,"MEAN_ANOMALY":77.6309,"EPHEMERIS_TYPE":0,"CLASSIFICATION_TYPE":"U","NORAD_CAT_ID":62729,"ELEMENT_SET_NO":999,"REV_AT_EPOCH":6276,"BSTAR":0.0013206527,"MEAN_MOTION_DOT":0.00037616,"MEAN_MOTION_DDOT":0},{"OBJECT_NAME":"STARLINK-32703","OBJECT_ID":"2025-031R","EPOCH":"2026-03-09T05:53:38.642496","MEAN_MOTION":15.27587396,"ECCENTRICITY":0.00010604,"INCLINATION":42.9976,"RA_OF_ASC_NODE":146.164,"ARG_OF_PERICENTER":282.5807,"MEAN_ANOMALY":77.4926,"EPHEMERIS_TYPE":0,"CLASSIFICATION_TYPE":"U","NORAD_CAT_ID":62996,"ELEMENT_SET_NO":999,"REV_AT_EPOCH":6102,"BSTAR":0.001376054,"MEAN_MOTION_DOT":0.00037807,"MEAN_MOTION_DDOT":0}]
